NORAD_CAT_ID,OBJECT_NAME,OBJECT_TYPE,EPOCH,MEAN_MOTION,ECCENTRICITY,INCLINATION,RA_OF_ASC_NODE,ARG_OF_PERICENTER,MEAN_ANOMALY,BSTAR,MEAN_MOTION_DOT,MEAN_MOTION_DDOT,TLE_LINE0,TLE_LINE1,TLE_LINE2,SEMIMAJOR_AXIS,PERIOD,APOGEE,PERIGEE,DECAYED
55412.0,STARLINK-5033,PAYLOAD,2024-01-12 20:20:11,14.98353616,0.0003108,69.9987,268.2508,265.8372,94.2432,0.00024142,2.79e-05,0.0,0 STARLINK-5033,1 55412U 23014X   24012.84735195  .00002790  00000-0  24142-3 0  9992,2 55412  69.9987 268.2508 0003108 265.8372  94.2432 14.98353616 52763,6950.12,96.105,574.145,569.825,0.0
55412.0,STARLINK-5033,PAYLOAD,2024-01-12 21:56:20,14.98338335,0.0003859,69.9978,268.0824,284.5708,75.5023,6.6115e-05,6.96e-06,0.0,0 STARLINK-5033,1 55412U 23014X   24012.91412586  .00000696  00000-0  66115-4 0  9996,2 55412  69.9978 268.0824 0003859 284.5708  75.5023 14.98338335 53711,6950.167,96.106,574.714,569.35,0.0
55412.0,STARLINK-5033,PAYLOAD,2024-01-13 02:44:46,14.98320578,0.0002728,69.9991,267.5775,267.382,92.7026,-0.00011635,-1.481e-05,0.0,0 STARLINK-5033,1 55412U 23014X   24013.11442142 -.00001481  00000-0 -11635-3 0  9991,2 55412  69.9991 267.5775 0002728 267.3820  92.7026 14.98320578 52806,6950.222,96.108,573.983,570.191,0.0
55412.0,STARLINK-5033,PAYLOAD,2024-01-14 02:46:46,14.98325881,0.000279,69.9987,265.0523,266.7406,93.3434,-7.8787e-05,-1.033e-05,0.0,0 STARLINK-5033,1 55412U 23014X   24014.11582090 -.00001033  00000-0 -78787-4 0  9994,2 55412  69.9987 265.0523 0002790 266.7406  93.3434 14.98325881 52955,6950.206,96.107,574.01,570.132,0.0
55412.0,STARLINK-5033,PAYLOAD,2024-01-14 22:00:23,14.98320888,0.0002777,69.9987,263.0311,271.0623,89.0218,0.00012693,1.421e-05,0.0,0 STARLINK-5033,1 55412U 23014X   24014.91693627  .00001421  00000-0  12693-3 0  9993,2 55412  69.9987 263.0311 0002777 271.0623  89.0218 14.98320888 54016,6950.221,96.108,574.016,570.156,0.0
55412.0,STARLINK-5033,PAYLOAD,2024-01-15 02:48:47,14.98326917,0.0002695,69.9987,262.5266,267.1293,92.9558,0.00018893,2.162e-05,0.0,0 STARLINK-5033,1 55412U 23014X   24015.11721127  .00002162  00000-0  18893-3 0  9994,2 55412  69.9987 262.5266 0002695 267.1293  92.9558 14.98326917 53105,6950.202,96.107,573.941,570.194,0.0
55412.0,STARLINK-5033,PAYLOAD,2024-01-15 18:50:08,14.98322396,0.0002514,69.9989,260.8439,254.2605,105.8276,6.4754e-05,6.8e-06,0.0,0 STARLINK-5033,1 55412U 23014X   24015.78481985  .00000680  00000-0  64754-4 0  9993,2 55412  69.9989 260.8439 0002514 254.2605 105.8276 14.98322396 53203,6950.216,96.107,573.829,570.334,0.0
55412.0,STARLINK-5033,PAYLOAD,2024-01-15 20:26:16,14.98322571,0.0002511,69.999,260.6756,254.5141,105.5741,6.4997e-05,6.83e-06,0.0,0 STARLINK-5033,1 55412U 23014X   24015.85158001  .00000683  00000-0  64997-4 0  9993,2 55412  69.9990 260.6756 0002511 254.5141 105.5741 14.98322571 54154,6950.216,96.107,573.826,570.336,0.0
55412.0,STARLINK-5033,PAYLOAD,2024-01-16 01:14:40,14.98314226,0.0002585,69.9988,260.1701,261.2608,98.8259,0.00021619,2.486e-05,0.0,0 STARLINK-5033,1 55412U 23014X   24016.05186281  .00002486  00000-0  21619-3 0  9993,2 55412  69.9988 260.1701 0002585 261.2608  98.8259 14.98314226 54189,6950.242,96.108,573.903,570.31,0.0
55412.0,STARLINK-5033,PAYLOAD,2024-01-16 18:52:09,14.98328521,0.0002845,69.999,258.319,264.4301,95.6534,-5.5369e-05,-7.54e-06,0.0,0 STARLINK-5033,1 55412U 23014X   24016.78622203 -.00000754  00000-0 -55369-4 0  9990,2 55412  69.9990 258.3190 0002845 264.4301  95.6534 14.98328521 53359,6950.197,96.107,574.04,570.085,0.0
55412.0,STARLINK-5033,PAYLOAD,2024-01-16 22:04:25,14.98326994,0.0002666,69.9988,257.9821,264.2323,95.8532,-4.7176e-05,-6.56e-06,0.0,0 STARLINK-5033,1 55412U 23014X   24016.91974302 -.00000656  00000-0 -47176-4 0  9993,2 55412  69.9988 257.9821 0002666 264.2323  95.8532 14.98326994 54314,6950.202,96.107,573.92,570.214,0.0
55412.0,STARLINK-5033,PAYLOAD,2024-01-17 01:16:41,14.98329452,0.0002547,69.9988,257.6455,258.5148,101.5725,-4.6323e-05,-6.46e-06,0.0,0 STARLINK-5033,1 55412U 23014X   24017.05326137 -.00000646  00000-0 -46323-4 0  9998,2 55412  69.9988 257.6455 0002547 258.5148 101.5725 14.98329452 54336,6950.195,96.107,573.83,570.289,0.0
55412.0,STARLINK-5033,PAYLOAD,2024-01-17 18:54:10,14.98325179,0.0002651,69.9984,255.7932,261.1091,98.9768,-9.1723e-06,-2.02e-06,0.0,0 STARLINK-5033,1 55412U 23014X   24017.78762396 -.00000202  00000-0 -91723-5 0  9992,2 55412  69.9984 255.7932 0002651 261.1091  98.9768 14.98325179 53500,6950.208,96.107,573.915,570.23,0.0
55412.0,STARLINK-5033,PAYLOAD,2024-01-17 22:06:26,14.98325475,0.0002636,69.9985,255.4567,260.413,99.6731,-3.2772e-06,-1.32e-06,0.0,0 STARLINK-5033,1 55412U 23014X   24017.92114394 -.00000132  00000-0 -32772-5 0  9998,2 55412  69.9985 255.4567 0002636 260.4130  99.6731 14.98325475 54464,6950.207,96.107,573.904,570.24,0.0
55412.0,STARLINK-5033,PAYLOAD,2024-01-18 01:18:42,14.98326351,0.0002622,69.9985,255.1201,260.2703,99.816,7.1934e-06,-7e-08,0.0,0 STARLINK-5033,1 55412U 23014X   24018.05466337 -.00000007  00000-0  71934-5 0  9993,2 55412  69.9985 255.1201 0002622 260.2703  99.8160 14.98326351 54489,6950.204,96.107,573.892,570.247,0.0
55412.0,STARLINK-5033,PAYLOAD,2024-01-18 18:56:09,14.98345662,0.0002957,69.9975,253.2661,267.6231,92.4589,0.00016537,1.881e-05,0.0,0 STARLINK-5033,1 55412U 23014X   24018.78900319  .00001881  00000-0  16537-3 0  9992,2 55412  69.9975 253.2661 0002957 267.6231  92.4589 14.98345662 53653,6950.144,96.106,574.065,569.954,0.0
55412.0,STARLINK-5033,PAYLOAD,2024-01-18 22:08:25,14.98347139,0.0002926,69.9975,252.9293,266.6896,93.3929,0.00017738,2.025e-05,0.0,0 STARLINK-5033,1 55412U 23014X   24018.92252055  .00002025  00000-0  17738-3 0  9990,2 55412  69.9975 252.9293 0002926 266.6896  93.3929 14.98347139 54618,6950.14,96.106,574.039,569.971,0.0
55412.0,STARLINK-5033,PAYLOAD,2024-01-19 01:20:41,14.98351744,0.0002905,69.9976,252.5932,268.5406,91.542,0.0002234,2.575e-05,0.0,0 STARLINK-5033,1 55412U 23014X   24019.05603476  .00002575  00000-0  22340-3 0  9997,2 55412  69.9976 252.5932 0002905 268.5406  91.5420 14.98351744 53690,6950.126,96.106,574.01,569.972,0.0
55412.0,STARLINK-5033,PAYLOAD,2024-01-19 18:58:12,14.98325618,0.0003039,69.9974,250.743,264.8351,95.2461,-0.00010782,-1.379e-05,0.0,0 STARLINK-5033,1 55412U 23014X   24019.79041907 -.00001379  00000-0 -10782-3 0  9993,2 55412  69.9974 250.7430 0003039 264.8351  95.2461 14.98325618 53808,6950.206,96.107,574.184,569.959,0.0
55412.0,STARLINK-5033,PAYLOAD,2024-01-19 22:10:28,14.98325389,0.0003176,69.9971,250.406,266.0971,93.9825,-0.00012692,-1.607e-05,0.0,0 STARLINK-5033,1 55412U 23014X   24019.92394015 -.00001607  00000-0 -12692-3 0  9995,2 55412  69.9971 250.4060 0003176 266.0971  93.9825 14.98325389 54765,6950.207,96.107,574.28,569.865,0.0
55412.0,STARLINK-5033,PAYLOAD,2024-01-20 14:11:49,14.98332926,0.0003072,69.9972,248.7234,267.9511,92.1296,-0.00026548,-3.259e-05,0.0,0 STARLINK-5033,1 55412U 23014X   24020.59154057 -.00003259  00000-0 -26548-3 0  9990,2 55412  69.9972 248.7234 0003072 267.9511  92.1296 14.98332926 54863,6950.184,96.107,574.184,569.914,0.0
55412.0,STARLINK-5033,PAYLOAD,2024-01-20 19:00:12,14.98336661,0.0002974,69.9977,248.2184,265.363,94.7189,-0.00022164,-2.737e-05,0.0,0 STARLINK-5033,1 55412U 23014X   24020.79181663 -.00002737  00000-0 -22164-3 0  9995,2 55412  69.9977 248.2184 0002974 265.3630  94.7189 14.98336661 53959,6950.172,96.107,574.104,569.97,0.0
55412.0,STARLINK-5033,PAYLOAD,2024-01-20 22:12:29,14.98332345,0.000287,69.9977,247.8814,265.6449,94.4382,-0.00012257,-1.555e-05,0.0,0 STARLINK-5033,1 55412U 23014X   24020.92533620 -.00001555  00000-0 -12257-3 0  9993,2 55412  69.9977 247.8814 0002870 265.6449  94.4382 14.98332345 54914,6950.186,96.107,574.045,570.056,0.0
55412.0,STARLINK-5033,PAYLOAD,2024-01-21 01:24:44,14.98336548,0.0002837,69.9978,247.5449,263.9866,96.097,-0.0001577,-1.974e-05,0.0,0 STARLINK-5033,1 55412U 23014X   24021.05885416 -.00001974  00000-0 -15770-3 0  9999,2 55412  69.9978 247.5449 0002837 263.9866  96.0970 14.98336548 54935,6950.173,96.107,574.009,570.066,0.0
55412.0,STARLINK-5033,PAYLOAD,2024-01-21 19:02:13,14.98324343,0.0002804,69.998,245.693,264.7077,95.3762,0.00012789,1.433e-05,0.0,0 STARLINK-5033,1 55412U 23014X   24021.79321481  .00001433  00000-0  12789-3 0  9992,2 55412  69.9980 245.6930 0002804 264.7077  95.3762 14.98324343 54109,6950.21,96.107,574.024,570.127,0.0
55412.0,STARLINK-5033,PAYLOAD,2024-01-21 22:14:29,14.98326304,0.0002767,69.998,245.3562,263.3568,96.7276,0.00014725,1.664e-05,0.0,0 STARLINK-5033,1 55412U 23014X   24021.92673336  .00001664  00000-0  14725-3 0  9994,2 55412  69.9980 245.3562 0002767 263.3568  96.7276 14.98326304 55065,6950.204,96.107,573.992,570.146,0.0
55412.0,STARLINK-5033,PAYLOAD,2024-01-21 23:50:37,14.9832695,0.000276,69.998,245.188,263.1739,96.9106,0.00015142,1.714e-05,0.0,0 STARLINK-5033,1 55412U 23014X   24021.99349297  .00001714  00000-0  15142-3 0  9997,2 55412  69.9980 245.1880 0002760 263.1739  96.9106 14.98326950 55079,6950.202,96.107,573.986,570.149,0.0
55412.0,STARLINK-5033,PAYLOAD,2024-01-22 19:04:15,14.98325955,0.0002653,69.9982,243.1679,263.9207,96.165,1.1524e-05,4.5e-07,0.0,0 STARLINK-5033,1 55412U 23014X   24022.79461960  .00000045  00000-0  11524-4 0  9995,2 55412  69.9982 243.1679 0002653 263.9207  96.1650 14.98325955 54253,6950.205,96.107,573.914,570.227,0.0
55412.0,STARLINK-5033,PAYLOAD,2024-01-22 22:16:31,14.98325903,0.0002662,69.998,242.8309,261.9256,98.1601,7.3094e-06,-6e-08,0.0,0 STARLINK-5033,1 55412U 23014X   24022.92813985 -.00000006  00000-0  73094-5 0  9997,2 55412  69.9980 242.8309 0002662 261.9256  98.1601 14.98325903 55217,6950.206,96.107,573.921,570.22,0.0
55412.0,STARLINK-5033,PAYLOAD,2024-01-22 23:52:39,14.98326877,0.0002653,69.998,242.6626,262.2297,97.8561,1.8167e-05,1.24e-06,0.0,0 STARLINK-5033,1 55412U 23014X   24022.99489903  .00000124  00000-0  18167-4 0  9992,2 55412  69.9980 242.6626 0002653 262.2297  97.8561 14.98326877 55229,6950.203,96.107,573.911,570.224,0.0
